[{"OBJECT_NAME":"STARLINK-31727","OBJECT_ID":"2024-082H","EPOCH":"2026-03-08T14:51:33.683040","MEAN_MOTION":15.27561531,"ECCENTRICITY":0.00010985,"INCLINATION":43.0027,"RA_OF_ASC_NODE":146.244,"ARG_OF_PERICENTER":232.1445,"MEAN_ANOMALY":127.9307,"EPHEMERIS_TYPE":0,"CLASSIFICATION_TYPE":"U","NORAD_CAT_ID":59638,"ELEMENT_SET_NO":999,"REV_AT_EPOCH":10469,"BSTAR":-8.742688e-6,"MEAN_MOTION_DOT":-5.02e-6,"MEAN_MOTION_DDOT":0},{"OBJECT_NAME":"FLOCK 4G-24","OBJECT_ID":"2025-009AE","EPOCH":"2026-03-09T17:24:07.838208","MEAN_MOTION":15.27784978,"ECCENTRICITY":0.0001802,"INCLINATION":97.4061,"RA_OF_ASC_NODE":151.514,"ARG_OF_PERICENTER":280.2808,"MEAN_ANOMALY":79.8228,"EPHEMERIS_TYPE":0,"CLASSIFICATION_TYPE":"U","NORAD_CAT_ID":62637,"ELEMENT_SET_NO":999,"REV_AT_EPOCH":6373,"BSTAR":0.00038996067,"MEAN_MOTION_DOT":0.00010513,"MEAN_MOTION_DDOT":0}]
